TRANSPORTER-15 OBJECT V 
1 66685U 25276V   26068.71425446  .00015740  00000+0  72832-3 0  9999
2 66685  97.4286 144.0632 0004449  13.5049 346.6304 15.20210490 15323
LEO EXPRESS 3           
1 66687U 25276X   26068.70934124  .00012924  00000+0  62124-3 0  9992
2 66687  97.4301 143.9034 0008989 143.3594 216.8257 15.18911167 15317
